satname,norad_id,inclination_deg,eccentricity,mean_motion_rev_per_day,perigee_km,apogee_km,l1,l2
STARLINK-1316,45415,53.1529,0.0001605,15.42418298,437.8803251075533,440.068617889905,1 45415U 20019BH  26198.52436662  .00034431  00000+0  79025-3 0  9991,2 45415  53.1529 240.5652 0001605 334.2514  25.8412 15.42418298349950
STARLINK-1286,45417,53.0417,0.0006788,15.68556541,358.4536272644127,367.60543494704143,1 45417U 20019BK  26197.40446828  .00038431  00000+0  33577-3 0  9990,2 45417  53.0417 224.7116 0006788  24.3707 335.7629 15.68556541350300
STARLINK-1308,45419,53.0428,0.0003264,15.69543774,358.0030735823284,362.40186158676806,1 45419U 20019BM  26198.09829280  .00032462  00000+0  27355-3 0  9990,2 45419  53.0428 240.3109 0003264 127.8539 232.2773 15.69543774349896
STARLINK-1329,45531,53.0384,0.0003665,15.7879798,331.38531819457694,336.30520119093126,1 45531U 20025A   26198.07237906  .00056300  00000+0  31515-3 0  9998,2 45531  53.0384 161.7333 0003665  35.9278 324.1988 15.78797980345773
STARLINK-1338,45532,53.0404,0.0002906,15.75449692,341.39857032407053,345.30509963496115,1 45532U 20025B   26198.63717211  .00045138  00000+0  29427-3 0  9999,2 45532  53.0404 166.6845 0002906  81.0041 279.1307 15.75449692345759
STARLINK-1350,45535,53.0712,0.0001822,15.40410751,443.6529825038933,446.13929577979707,1 45535U 20025E   26198.25391868  .00025197  00000+0  62145-3 0  9993,2 45535  53.0712 143.0984 0001822  88.4157 271.7055 15.40410751346094
STARLINK-1362,45538,53.1532,0.0005389,15.40671571,440.4495531814064,447.8025883190603,1 45538U 20025H   26198.47643326 -.00020291  00000+0 -48117-3 0  9994,2 45538  53.1532 213.6069 0005389   0.7581 359.3432 15.40671571345119
STARLINK-1368,45540,53.1539,0.0004353,15.40970559,440.2742320124862,446.2129259445446,1 45540U 20025K   26198.42002866  .00023452  00000+0  56858-3 0  9991,2 45540  53.1539 214.1854 0004353 358.9246   1.1749 15.40970559345091
STARLINK-1371,45542,53.0406,0.0002679,15.72253369,350.6552884433804,354.2615414667134,1 45542U 20025M   26198.00125230  .00039975  00000+0  29960-3 0  9999,2 45542  53.0406 180.5761 0002679  67.5633 292.5668 15.72253369345500
STARLINK-1372,45543,53.1543,0.0004386,15.41396003,438.9970250529859,444.9796389942376,1 45543U 20025N   26198.04302053  .00025376  00000+0  60570-3 0  9996,2 45543  53.1543 215.3382 0004386 350.3228   9.7692 15.41396003344143
STARLINK-1373,45544,53.0415,0.0003268,15.74080773,345.0503656002966,349.44607738106333,1 45544U 20025P   26198.34326558  .00044050  00000+0  30482-3 0  9995,2 45544  53.0415 173.4531 0003268  74.4201 285.7178 15.74080773345634
STARLINK-1327,45555,53.0391,0.0002409,15.76152449,339.73502695603383,342.9724776004814,1 45555U 20025AA  26198.56683307  .00046406  00000+0  29326-3 0  9991,2 45555  53.0391 149.3792 0002409 101.2425 258.8864 15.76152449345986
STARLINK-1356,45564,53.0408,0.0004577,15.68519767,360.0494151353287,366.2203754282691,1 45564U 20025AK  26198.34582581  .00030495  00000+0  26830-3 0  9997,2 45564  53.0408 165.2416 0004577  57.0206 303.1249 15.68519767345744
STARLINK-1357,45565,53.0428,0.0001394,15.74058161,346.37510229486907,348.2501576517052,1 45565U 20025AL  26198.50914846  .00043637  00000+0  30236-3 0  9996,2 45565  53.0428 119.7417 0001394 233.4691 126.6198 15.74058161346402
STARLINK-1361,45567,53.0396,0.0002538,15.72428285,350.25116894419807,353.66736580951965,1 45567U 20025AN  26198.54677045  .00064514  00000+0  47579-3 0  9994,2 45567  53.0396 161.9744 0002538  86.7617 273.3691 15.72428285345816
STARLINK-1376,45570,53.1541,0.0002823,15.41895379,438.5907839660031,442.44059527456284,1 45570U 20025AR  26198.26852866  .00027769  00000+0  65092-3 0  9994,2 45570  53.1541 190.5556 0002823  14.5010 345.6077 15.41895379345410
STARLINK-1320,45572,53.0319,0.0002453,16.05064464,258.7890104364478,262.0458852485599,1 45572U 20025AT  26198.67379007  .00325978  59425-4  46392-3 0  9997,2 45572  53.0319  51.2159 0002453 219.9206 140.1646 16.05064464347385
STARLINK-1321,45573,53.0406,0.0001808,15.72920253,349.3393153847346,351.7724107240156,1 45573U 20025AU  26198.09814830  .00042200  00000+0  30716-3 0  9999,2 45573  53.0406 147.9451 0001808  98.0675 262.0548 15.72920253345664
STARLINK-1331,45578,53.0437,0.0001989,15.72634036,350.0337468069529,352.7107455850901,1 45578U 20025AZ  26198.57227610  .00038856  00000+0  28674-3 0  9993,2 45578  53.0437 152.5814 0001989  87.9591 272.1654 15.72634036345955
STARLINK-1333,45580,53.1544,0.0004478,15.38896484,446.3139358403496,452.4286522685061,1 45580U 20025BB  26198.39420431  .00026370  00000+0  68273-3 0  9999,2 45580  53.1544 192.3317 0004478  11.4154 348.6951 15.38896484345409
STARLINK-1335,45581,53.152,0.0003423,15.40424678,442.5195041578063,447.1905244908121,1 45581U 20025BC  26198.38088214  .00027607  00000+0  67940-3 0  9992,2 45581  53.1520 188.6355 0003423 343.3986  16.6907 15.40424678345445
STARLINK-1337,45582,53.0412,0.0001697,15.80536942,327.7829970117382,330.05937255965546,1 45582U 20025BD  26198.47555574  .00063883  00000+0  32980-3 0  9993,2 45582  53.0412 139.9593 0001697 130.0938 230.0231 15.80536942346105
STARLINK-1347,45586,53.0362,0.0001507,15.72936272,349.496171889341,351.52418614909675,1 45586U 20025BH  26198.19067369  .00044171  00000+0  32100-3 0  9999,2 45586  53.0362 113.7966 0001507  80.2332 279.8856 15.72936272346443
STARLINK-1364,45589,53.0393,0.0004601,15.73660969,345.3493512490286,351.53915131645863,1 45589U 20025BL  26198.24244773  .00042237  00000+0  29774-3 0  9998,2 45589  53.0393 150.0333 0004601  59.4930 300.6541 15.73660969345948
STARLINK-1365,45590,53.042,0.0002838,15.68635981,360.888856688096,364.7150136276914,1 45590U 20025BM  26197.43863440  .00031309  00000+0  27407-3 0  9997,2 45590  53.0420 189.9619 0002838  53.8721 306.2558 15.68635981345338
STARLINK-1443,45660,53.131,0.0002692,15.35475417,457.66804572151796,461.34943418790954,1 45660U 20035D   26198.66271035  .00022749  00000+0  65948-3 0  9995,2 45660  53.1310 180.5343 0002692  58.6617 301.4649 15.35475417338667
STARLINK-1446,45663,53.0206,0.0002424,15.49918284,415.317763797113,418.61202919653533,1 45663U 20035G   26198.73102726  .00021029  00000+0  37696-3 0  9995,2 45663  53.0206  98.5225 0002424  36.3525 323.7647 15.49918284339793
STARLINK-1448,45665,53.0399,0.0002058,15.77787735,335.32812459141223,338.0919556331237,1 45665U 20035J   26198.53360113  .00059025  00000+0  34547-3 0  9990,2 45665  53.0399 135.3245 0002058 115.5231 244.6002 15.77787735339250
STARLINK-1451,45668,53.0498,0.0002525,15.15901596,516.5014125557173,519.9840843286802,1 45668U 20035M   26198.40680101  .00011459  00000+0  60615-3 0  9995,2 45668  53.0498 197.6336 0002525  21.1853 338.9244 15.15901596338389
STARLINK-1452,45669,53.0217,0.000696,15.65063334,368.3577871557336,377.7554486718709,1 45669U 20035N   26197.99943334  .00029823  00000+0  30144-3 0  9997,2 45669  53.0217 116.2688 0006960  81.0165 279.1636 15.65063334339481
STARLINK-1453,45670,53.0355,0.000192,15.78767007,332.64432785813005,335.2217627555274,1 45670U 20035P   26198.74039405  .00069384  00000+0  38756-3 0  9991,2 45670  53.0355  94.3923 0001920 193.0508 167.0463 15.78767007339744
STARLINK-1454,45671,53.0419,0.0001589,15.76126383,340.3600979090497,342.4955756141717,1 45671U 20035Q   26198.07113551  .00057276  00000+0  36097-3 0  9996,2 45671  53.0419 139.3247 0001589  93.0263 267.0938 15.76126383339150
STARLINK-1456,45673,53.0396,0.0001417,15.72324351,351.30214994110065,353.2095432738288,1 45673U 20035S   26198.23201323  .00042931  00000+0  32037-3 0  9993,2 45673  53.0396 133.8637 0001417 100.6030 259.5147 15.72324351339266
STARLINK-1458,45675,53.0431,0.0002896,15.64287907,373.33171363157817,377.24329710508664,1 45675U 20035U   26198.41024397  .00094825  00000+0  96915-3 0  9993,2 45675  53.0431 150.1071 0002896  99.4276 260.7066 15.64287907339014
STARLINK-1460,45676,53.1545,0.0004426,15.38604547,447.2126700507233,453.2571448632043,1 45676U 20035V   26198.11508856  .00026045  00000+0  68091-3 0  9991,2 45676  53.1545 180.8890 0004426  35.8533 324.2768 15.38604547338571
STARLINK-1392,45677,53.1507,0.0005303,15.42164405,436.1071597729233,443.3381817397276,1 45677U 20035W   26198.24013794  .00068742  00000+0  15742-2 0  9992,2 45677  53.1507 177.9570 0005303  29.2453 330.8849 15.42164405338667
STARLINK-1394,45679,53.0389,0.0001309,15.70757757,355.8485436026913,357.61173181934464,1 45679U 20035Y   26198.19700471  .00038526  00000+0  30768-3 0  9996,2 45679  53.0389 124.6084 0001309 106.8278 253.2883 15.70757757339389
STARLINK-1402,45685,53.0394,0.0001041,15.67849613,364.35376303982775,365.75769576608945,1 45685U 20035AE  26198.47829130  .00029131  00000+0  26374-3 0  9998,2 45685  53.0394 115.7299 0001041 129.3682 230.7426 15.67849613339543
STARLINK-1404,45686,53.1553,0.0004726,15.48221651,418.71459617000346,425.14201789821163,1 45686U 20035AF  26198.59341503  .00035509  00000+0  66830-3 0  9992,2 45686  53.1553 156.1906 0004726  21.2570 338.8634 15.48221651339002
STARLINK-1413,45689,53.155,0.0004962,15.38299632,447.7485183924364,454.5258901127363,1 45689U 20035AJ  26198.28761637  .00027541  00000+0  72641-3 0  9999,2 45689  53.1550 164.7649 0004962  33.4695 326.6622 15.38299632338774
STARLINK-1417,45693,53.0485,0.0002981,15.18508667,508.29360586007715,512.4005200584124,1 45693U 20035AN  26198.10860322  .00016263  00000+0  79204-3 0  9997,2 45693  53.0485 184.9291 0002981 328.4549  31.6266 15.18508667338525
STARLINK-1420,45695,53.0419,0.0001302,15.75146098,343.3402244214294,345.09072500584443,1 45695U 20035AQ  26198.05592551  .00048501  00000+0  32000-3 0  9992,2 45695  53.0419 107.4541 0001302 168.2842 191.8208 15.75146098339619
STARLINK-1422,45696,53.1536,0.0001842,15.40164154,444.3674773038665,446.8813510088421,1 45696U 20035AR  26198.32677212  .00031230  00000+0  77358-3 0  9997,2 45696  53.1536 164.2109 0001842  89.4912 270.6304 15.40164154338867
